FLOCK 2K-36             
1 42876U 17042BD  17325.82804024  .00020711  00000-0  61403-3 0  9995
2 42876  96.9947 227.9710 0014276 125.8673 234.3899 15.34756761 19815
FLOCK 2K-35             
1 42877U 17042BE  17326.22080675  .00010575  00000-0  31501-3 0  9992
2 42877  96.9944 228.3387 0014098 124.2093 236.0489 15.34756094 19878
FLOCK 2K-34             
1 42878U 17042BF  17326.15258047  .00009612  00000-0  28662-3 0  9999
2 42878  96.9945 228.2761 0014247 125.1761 235.0819 15.34746100 19865
FLOCK 2K-33             
1 42879U 17042BG  17325.69324118  .00011232  00000-0  33447-3 0  9999
2 42879  96.9945 227.8471 0014265 126.4518 233.8043 15.34747471 19792
FLOCK 2K-28             
1 42880U 17042BH  17325.72721053  .00003486  00000-0  10866-3 0  9996
2 42880  96.9950 227.8112 0014430 126.9701 233.2866 15.33768665 19799
LEMUR-2-ARTFISCHER      
1 42881U 17042BJ  17326.16578186  .00006954  00000-0  21066-3 0  9990
2 42881  96.9972 228.3064 0014962 126.7049 233.5572 15.34338485 19857
FLOCK 2K-27             
1 42882U 17042BK  17325.69160816  .00012934  00000-0  38500-3 0  9991
2 42882  96.9947 227.8544 0014339 126.7689 233.4874 15.34727293 19791
FLOCK 2K-26             
1 42883U 17042BL  17325.68875844  .00011291  00000-0  33622-3 0  9990
2 42883  96.9945 227.8552 0014221 125.3016 234.9561 15.34748894 19797
FLOCK 2K-25             
1 42884U 17042BM  17326.28156111  .00014048  00000-0  41722-3 0  9990
2 42884  96.9943 228.3998 0014296 124.3957 235.8641 15.34779050 19888
FLOCK 2K-20             
1 42885U 17042BN  17325.68739261  .00013198  00000-0  39255-3 0  9990
2 42885  96.9951 227.8604 0014446 125.7466 234.5124 15.34746134 19792
FLOCK 2K-19             
1 42886U 17042BP  17325.69037992  .00014552  00000-0  43225-3 0  9991
2 42886  96.9947 227.8567 0014366 125.7072 234.5511 15.34765861 19798
FLOCK 2K-18             
1 42887U 17042BQ  17326.20012358  .00012933  00000-0  38445-3 0  9998
2 42887  96.9941 228.3624 0014819 123.3387 236.9278 15.34762980 19873
FLOCK 2K-17             
1 42888U 17042BR  17325.68287812  .00014691  00000-0  43676-3 0  9994
2 42888  96.9939 227.8562 0014587 124.1276 236.1354 15.34733358 19799
FLOCK 2K-16             
1 42889U 17042BS  17325.68450925  .00009368  00000-0  27912-3 0  9992
2 42889  96.9943 227.8639 0014189 123.6585 236.6015 15.34778896 19790
FLOCK 2K-15             
1 42890U 17042BT  17325.67713206  .00013608  00000-0  40394-3 0  9998
2 42890  96.9951 227.8779 0014683 124.5360 235.7272 15.34796711 19797
FLOCK 2K-13             
1 42891U 17042BU  17325.68587715  .00011532  00000-0  34302-3 0  9990
2 42891  96.9942 227.8592 0014579 122.2975 237.9683 15.34771771 19791
FLOCK 2K-14             
1 42892U 17042BV  17325.68006920  .00011144  00000-0  33141-3 0  9994
2 42892  96.9939 227.8603 0014740 123.6507 236.6146 15.34785508 19790
FLOCK 2K-12             
1 42893U 17042BW  17326.52172435  .00004518  00000-0  13569-3 0  9993
2 42893  96.9949 228.6808 0014792 122.0218 238.2465 15.34794721 19921
FLOCK 2K-11             
1 42894U 17042BX  17326.26838181  .00013935  00000-0  41336-3 0  9998
2 42894  96.9943 228.4246 0014775 119.6206 240.6512 15.34811690 19880
FLOCK 2K-10             
1 42895U 17042BY  17326.19724023  .00008617  00000-0  25657-3 0  9999
2 42895  96.9943 228.3614 0014877 121.6062 238.6636 15.34814439 19872
FLOCK 2K-09             
1 42896U 17042BZ  17325.67254316  .00017675  00000-0  52433-3 0  9991
2 42896  96.9949 227.8769 0014642 122.7932 237.4725 15.34763736 19961
FLOCK 2K-06             
1 42897U 17042CA  17325.71116277  .00017281  00000-0  51314-3 0  9990
2 42897  96.9945 227.8290 0012473 134.5425 225.6840 15.34767595 19790
SILU-1 (SILKROAD 1)     
1 42903U 17021F   17326.48814916  .00020778  00000-0  22218-3 0  9991
2 42903  42.7791 132.2370 0009717 286.6109 125.4893 15.63413929 17490
FLOCK 3M-1              
1 42995U 17068J   17326.36625861  .00001630  00000-0  83108-4 0  9991
2 42995  97.3428  79.9304 0018799 146.5064 213.7363 15.18002629  3255
FLOCK 3M-3              
1 42996U 17068K   17326.36399910  .00001602  00000-0  81384-4 0  9998
2 42996  97.3383  79.9190 0018129 147.1564 213.0801 15.18162624  3250
FLOCK 3M-4              
1 42997U 17068L   17326.29697255  .00001479  00000-0  75249-4 0  9999
2 42997  97.3595  79.9257 0017867 148.3032 211.9282 15.18238739  3241
FLOCK 3M-2              
1 42998U 17068M   17326.42458335  .00001643  00000-0  82529-4 0  9991
2 42998  97.3496  80.0263 0016206 143.6669 216.5669 15.18539631  3269
ECAMSAT                 
1 43019U 98067NG  17326.49724436  .00009246  00000-0  14324-3 0  9993
2 43019  51.6422 329.1152 0005742 118.4563  18.9968 15.54793278 86363
ASTERIA                 
1 43020U 98067NH  17326.49692110  .00024853  00000-0  37291-3 0  9997
2 43020  51.6434 329.1219 0003146 110.3495  24.4282 15.54751992   288
DELLINGR                
1 43021U 98067NJ  17326.49698646  .00012814  00000-0  19629-3 0  9997
2 43021  51.6432 329.1204 0002889 103.7183  30.9708 15.54713919   286
1998-067NK              
1 43026U 98067NK  17326.42515852  .00064786  00000-0  94316-3 0  9993
2 43026  51.6454 329.4808 0002895  81.5002  11.1346 15.55117562   178
1998-067NL              
1 43027U 98067NL  17326.49533351  .00083797  00000-0  12140-2 0  9992
2 43027  51.6426 329.1224 0004478  81.7408  43.6843 15.55133529   160
